[{"OBJECT_NAME":"FLOCK 4G-8","OBJECT_ID":"2025-009E","EPOCH":"2026-03-09T17:22:17.546016","MEAN_MOTION":15.27623414,"ECCENTRICITY":0.00030503,"INCLINATION":97.4045,"RA_OF_ASC_NODE":151.2834,"ARG_OF_PERICENTER":315.2538,"MEAN_ANOMALY":44.8455,"EPHEMERIS_TYPE":0,"CLASSIFICATION_TYPE":"U","NORAD_CAT_ID":62613,"ELEMENT_SET_NO":999,"REV_AT_EPOCH":6372,"BSTAR":0.0005043806,"MEAN_MOTION_DOT":0.00013559,"MEAN_MOTION_DDOT":0},{"OBJECT_NAME":"STARLINK-36500","OBJECT_ID":"2026-002R","EPOCH":"2026-03-09T10:10:54.648768","MEAN_MOTION":15.27533622,"ECCENTRICITY":6.436e-5,"INCLINATION":42.9968,"RA_OF_ASC_NODE":327.1737,"ARG_OF_PERICENTER":351.1054,"MEAN_ANOMALY":8.9786,"EPHEMERIS_TYPE":0,"CLASSIFICATION_TYPE":"U","NORAD_CAT_ID":67320,"ELEMENT_SET_NO":999,"REV_AT_EPOCH":1109,"BSTAR":0.00091419923,"MEAN_MOTION_DOT":0.00024944,"MEAN_MOTION_DDOT":0}]
